SL-4 R/B                
1 39679U 14021B   25340.63237659  .00020002  00000+0  47337-3 0  9997
2 39679  51.6086  70.2716 0102313 124.1129 236.9612 15.36449968641954
ALOS-2                  
1 39766U 14029A   25340.52077355  .00003640  00000+0  49410-3 0  9998
2 39766  97.9236  75.4559 0001517 105.6706 254.4673 14.79466407623092
YAOGAN-29               
1 41038U 15069A   25340.61168399  .00000928  00000+0  12120-3 0  9991
2 41038  98.0223   3.7635 0000506 357.5326   2.5885 14.82872443542088
ASTRO-H (HITOMI)        
1 41337U 16012A   25340.40759086  .00005797  00000+0  34892-3 0  9997
2 41337  30.9989 238.1941 0009475 114.7865 245.3759 15.09293028538126
HXMT (HUIYAN)           
1 42758U 17034A   25340.59830868  .00006198  00000+0  32319-3 0  9996
2 42758  43.0117 173.7072 0032356   3.9927 356.1173 15.16172998468407
CZ-2C R/B               
1 43521U 18054D   25340.38935934  .00132048  00000+0  93052-3 0  9990
2 43521  35.1329 223.9154 0016504  76.4536 283.8034 15.72509424414054
SAOCOM 1A               
1 43641U 18076A   25340.59594116  .00000968  00000+0  12812-3 0  9993
2 43641  97.8853 165.1078 0001490  87.8964 272.2420 14.82147126387579
H-2A R/B                
1 43682U 18084L   25340.63878777  .00029269  00000+0  79762-3 0  9992
2 43682  98.8773 173.4548 0027875 347.5114  12.5432 15.37052057391468
SAOCOM 1B               
1 46265U 20059A   25340.55969017  .00000570  00000+0  78112-4 0  9999
2 46265  97.8849 164.1730 0001252  87.2052 272.9305 14.82149038284952
CSS (TIANHE)            
1 48274U 21035A   25340.62885415  .00028802  00000+0  36467-3 0  9997
2 48274  41.4683  53.7961 0009534 342.8614  17.1901 15.58799060263070
COSMOS 2550             
1 48865U 21056A   25340.53133080  .00002491  00000+0  81497-4 0  9990
2 48865  67.1444 322.7124 0008392 270.0197  89.9996 15.33831192249177
CZ-2C R/B               
1 52794U 22058K   25340.54692097  .00039941  00000+0  72204-3 0  9993
2 52794  50.1912  75.1214 0046031 172.9477 187.2148 15.48070272195673
